{
    "links": {
        "self": "http://www.neowsapp.com/rest/v1/neo/54051045?api_key=iIulBulltgU6a56xZRHN4H3l9WmuAYTsLGpBGhQ2"
    },
    "id": "54051045",
    "neo_reference_id": "54051045",
    "name": "(2020 PT2)",
    "designation": "2020 PT2",
    "nasa_jpl_url": "http://ssd.jpl.nasa.gov/sbdb.cgi?sstr=54051045",
    "absolute_magnitude_h": 26.176,
    "estimated_diameter": {
        "kilometers": {
            "estimated_diameter_min": 0.0154651799,
            "estimated_diameter_max": 0.0345811936
        },
        "meters": {
            "estimated_diameter_min": 15.4651799097,
            "estimated_diameter_max": 34.5811935623
        },
        "miles": {
            "estimated_diameter_min": 0.0096096143,
            "estimated_diameter_max": 0.0214877508
        },
        "feet": {
            "estimated_diameter_min": 50.7387808548,
            "estimated_diameter_max": 113.4553630868
        }
    },
    "is_potentially_hazardous_asteroid": false,
    "close_approach_data": [
        {
            "close_approach_date": "2016-10-31",
            "close_approach_date_full": "2016-Oct-31 01:47",
            "epoch_date_close_approach": 1477878420000,
            "relative_velocity": {
                "kilometers_per_second": "21.1166721496",
                "kilometers_per_hour": "76020.0197384754",
                "miles_per_hour": "47235.8839313877"
            },
            "miss_distance": {
                "astronomical": "0.4156736425",
                "lunar": "161.6970469325",
                "kilometers": "62183891.533141475",
                "miles": "38639278.471543355"
            },
            "orbiting_body": "Earth"
        },
        {
            "close_approach_date": "2020-08-14",
            "close_approach_date_full": "2020-Aug-14 21:21",
            "epoch_date_close_approach": 1597440060000,
            "relative_velocity": {
                "kilometers_per_second": "8.7251726838",
                "kilometers_per_hour": "31410.6216617536",
                "miles_per_hour": "19517.338776438"
            },
            "miss_distance": {
                "astronomical": "0.0176273839",
                "lunar": "6.8570523371",
                "kilometers": "2637019.085112293",
                "miles": "1638567.6780959234"
            },
            "orbiting_body": "Earth"
        }
    ],
    "orbital_data": {
        "orbit_id": "5",
        "orbit_determination_date": "2020-10-27 07:14:31",
        "first_observation_date": "2020-08-12",
        "last_observation_date": "2020-08-17",
        "data_arc_in_days": 5,
        "observations_used": 41,
        "orbit_uncertainty": "7",
        "minimum_orbit_intersection": ".001163",
        "jupiter_tisserand_invariant": "3.206",
        "epoch_osculation": "2459000.5",
        "eccentricity": ".5951136593496419",
        "semi_major_axis": "2.482219650754405",
        "inclination": "1.576425080237809",
        "ascending_node_longitude": "150.3365188589783",
        "orbital_period": "1428.429270852613",
        "perihelion_distance": "1.005016831084361",
        "perihelion_argument": "192.0196019038036",
        "aphelion_distance": "3.95942247042445",
        "perihelion_time": "2459092.461168717692",
        "mean_anomaly": "336.8234791782105",
        "mean_motion": ".2520250791172322",
        "equinox": "J2000",
        "orbit_class": {
            "orbit_class_type": "APO",
            "orbit_class_description": "Near-Earth asteroid orbits which cross the Earth’s orbit similar to that of 1862 Apollo",
            "orbit_class_range": "a (semi-major axis) > 1.0 AU; q (perihelion) < 1.017 AU"
        }
    },
    "is_sentry_object": false
}